QIANFAN-33              
1 61566U 24185Q   25214.20177266  .00000207  00000+0  14009-3 0  9994
2 61566  88.9786  93.6049 0008247  32.8334 327.3354 13.96406801 50669
QIANFAN-34              
1 61567U 24185R   25213.85410867  .00000280  00000+0  17421-3 0  9994
2 61567  88.9764  93.3828 0007339  44.7724 315.4047 14.02156537 50768
QIANFAN-35              
1 61568U 24185S   25214.17075145  .00000548  00000+0  21645-3 0  9997
2 61568  88.9787  92.4602 0007587  20.2245 339.9248 14.27657079 51260
QIANFAN-36              
1 61569U 24185T   25213.87609535  .00000117  00000+0  15035-3 0  9998
2 61569  88.9777  94.9033 0008140  70.6137 289.5896 13.55544507 49920
QIANFAN-37              
1 62238U 24232B   25213.89791387  .00000046  00000+0  52101-4 0  9991
2 62238  88.9926  54.7662 0002552  95.5718 264.5724 13.50964861 81231
QIANFAN-38              
1 62239U 24232C   25213.84864986  .00000051  00000+0  60911-4 0  9997
2 62239  88.9933  54.6779 0013313 213.2126 146.8191 13.50953374 81289
QIANFAN-39              
1 62240U 24232D   25213.87468723  .00000141  00000+0  53475-4 0  9998
2 62240  88.9931  52.5278 0017259 146.8468 213.3810 14.25228983 82466
QIANFAN-40              
1 62241U 24232E   25213.88150861  .00000053  00000+0  63225-4 0  9997
2 62241  88.9960  54.2217 0012148 221.3702 138.6530 13.50959523 81659
